H1 CPF 01  gfz 2022 04 03 00  5931 terrasarx 
H2 0702601  6201 31698    2022 04 03 00 59 42 2022 04 08 00 00 42   120 1 1  0 0 0
H9
10 0 59676  38862.000000  0    2149734.042  -4481933.685   4759546.382
10 0 59676  38982.000000  0    2207428.881  -5092234.102   4071405.419
10 0 59676  39102.000000  0    2216632.808  -5614110.305   3311592.635
10 0 59676  39222.000000  0    2178810.117  -6037582.381   2493469.319
10 0 59676  39342.000000  0    2096410.981  -6354434.477   1631434.754
10 0 59676  39462.000000  0    1972798.331  -6558380.683    740669.256
10 0 59676  39582.000000  0    1812154.329  -6645195.669   -163138.774
10 0 59676  39702.000000  0    1619369.880  -6612806.095  -1064078.016
10 0 59676  39822.000000  0    1399917.650  -6461335.366  -1946305.815
10 0 59676  39942.000000  0    1159713.481  -6193103.809  -2794333.903
10 0 59676  40062.000000  0     904971.326  -5812584.312  -3593306.388
10 0 59676  40182.000000  0     642055.888  -5326316.124  -4329261.579
10 0 59676  40302.000000  0     377334.046  -4742780.008  -4989374.371
10 0 59676  40422.000000  0     117030.158  -4072238.266  -5562173.916
10 0 59676  40542.000000  0    -132911.593  -3326543.897  -6037734.716
10 0 59676  40662.000000  0    -366955.008  -2518923.202  -6407837.834
10 0 59676  40782.000000  0    -580087.473  -1663737.092  -6666101.443
10 0 59676  40902.000000  0    -767921.525   -776225.833  -6808080.084
10 0 59676  41022.000000  0    -926780.600    127759.478  -6831333.511
10 0 59676  41142.000000  0   -1053767.994   1032034.348  -6735462.789
10 0 59676  41262.000000  0   -1146818.325   1920362.953  -6522116.201
10 0 59676  41382.000000  0   -1204730.518   2776742.128  -6194963.841
10 0 59676  41502.000000  0   -1227182.118   3585684.446  -5759642.965
10 0 59676  41622.000000  0   -1214724.871   4332496.579  -5223670.492
10 0 59676  41742.000000  0   -1168761.054   5003547.585  -4596324.929
10 0 59676  41862.000000  0   -1091501.527   5586523.717  -3888496.550
10 0 59676  41982.000000  0    -985905.298   6070662.742  -3112506.909
10 0 59676  42102.000000  0    -855601.746   6446962.911  -2281901.303
10 0 59676  42222.000000  0    -704796.904   6708362.977  -1411215.794
10 0 59676  42342.000000  0    -538166.219   6849886.258   -515722.270
10 0 59676  42462.000000  0    -360735.277   6868746.300    388842.819
10 0 59676  42582.000000  0    -177751.783   6764410.075   1286562.353
10 0 59676  42702.000000  0       5447.182   6538614.439   2161628.976
10 0 59676  42822.000000  0     183569.186   6195334.854   2998632.253
10 0 59676  42942.000000  0     351498.691   5740710.585   3782836.289
10 0 59676  43062.000000  0     504424.835   5182929.922   4500443.996
10 0 59676  43182.000000  0     637960.685   4532072.853   5138847.247
10 0 59676  43302.000000  0     748250.905   3799914.184   5686844.818
10 0 59676  43422.000000  0     832067.182   2999703.789   6134834.708
10 0 59676  43542.000000  0     886887.211   2145918.856   6474977.987
10 0 59676  43662.000000  0     910956.392   1253996.604   6701329.931
10 0 59676  43782.000000  0     903331.772    340051.685   6809937.818
10 0 59676  43902.000000  0     863907.237   -579414.570   6798904.916
10 0 59676  44022.000000  0     793419.277  -1487811.240   6668422.975
10 0 59676  44142.000000  0     693433.239  -2368757.091   6420769.404
10 0 59676  44262.000000  0     566310.255  -3206376.649   6060270.697
10 0 59676  44382.000000  0     415155.132  -3985588.431   5593229.249
10 0 59676  44502.000000  0     243747.350  -4692377.606   5027817.982
10 0 59676  44622.000000  0      56456.173  -5314052.743   4373945.065
10 0 59676  44742.000000  0    -141859.919  -5839483.585   3643086.560
10 0 59676  44862.000000  0    -345967.957  -6259310.802   2848087.274
10 0 59676  44982.000000  0    -550385.596  -6566123.077   2002934.512
10 0 59676  45102.000000  0    -749513.533  -6754596.050   1122509.313
10 0 59676  45222.000000  0    -937773.106  -6821593.933    222319.104
10 0 59676  45342.000000  0   -1109745.313  -6766225.132   -681785.325
10 0 59676  45462.000000  0   -1260306.091  -6589851.220  -1573898.234
10 0 59676  45582.000000  0   -1384755.275  -6296051.082  -2438346.608
10 0 59676  45702.000000  0   -1478936.666  -5890541.829  -3259971.888
10 0 59676  45822.000000  0   -1539345.962  -5381057.557  -4024400.194
10 0 59676  45942.000000  0   -1563223.470  -4777189.245  -4718294.097
10 0 59676  46062.000000  0   -1548629.725  -4090192.088  -5329580.774
10 0 59676  46182.000000  0   -1494502.906  -3332765.919  -5847654.497
10 0 59676  46302.000000  0   -1400696.839  -2518813.162  -6263551.291
10 0 59676  46422.000000  0   -1267999.083  -1663178.858  -6570093.070
10 0 59676  46542.000000  0   -1098129.434   -781379.312  -6761999.772
10 0 59676  46662.000000  0    -893719.349    110676.240  -6835970.696
10 0 59676  46782.000000  0    -658271.426    996966.892  -6790734.329
10 0 59676  46902.000000  0    -396100.243   1861640.158  -6627067.497
10 0 59676  47022.000000  0    -112256.297   2689287.998  -6347783.669
10 0 59676  47142.000000  0     187567.555   3465216.408  -5957691.678
10 0 59676  47262.000000  0     497146.559   4175704.761  -5463521.475
10 0 59676  47382.000000  0     809847.841   4808248.699  -4873818.396
10 0 59676  47502.000000  0    1118766.594   5351785.489  -4198807.411
10 0 59676  47622.000000  0    1416872.658   5796896.209  -3450225.676
10 0 59676  47742.000000  0    1697164.020   6135979.353  -2641126.396
10 0 59676  47862.000000  0    1952824.136   6363393.021  -1785656.247
10 0 59676  47982.000000  0    2177379.651   6475561.088   -898808.554
10 0 59676  48102.000000  0    2364854.283   6471038.788      3843.168
10 0 59676  48222.000000  0    2509914.534   6350535.664    906424.867
10 0 59676  48342.000000  0    2608003.598   6116895.430   1793048.546
10 0 59676  48462.000000  0    2655460.021   5775033.231   2648100.097
10 0 59676  48582.000000  0    2649618.383   5331831.864   3456522.155
10 0 59676  48702.000000  0    2588889.445   4795999.146   4204086.171
10 0 59676  48822.000000  0    2472816.891   4177890.176   4877648.956
10 0 59676  48942.000000  0    2302107.787   3489295.756   5465385.119
10 0 59676  49062.000000  0    2078639.915   2743209.348   5956990.081
10 0 59676  49182.000000  0    1805445.825   1953576.390   6343856.608
10 0 59676  49302.000000  0    1486671.756   1135028.162   6619220.825
10 0 59676  49422.000000  0    1127513.339    302607.089   6778273.304
10 0 59676  49542.000000  0     734130.202   -528508.939   6818237.119
10 0 59676  49662.000000  0     313540.141  -1343282.694   6738415.074
10 0 59676  49782.000000  0    -126506.322  -2127089.895   6540201.133
10 0 59676  49902.000000  0    -577668.798  -2865981.849   6227057.265
10 0 59676  50022.000000  0   -1031173.787  -3546934.618   5804454.853
10 0 59676  50142.000000  0   -1477982.190  -4158079.243   5279783.941
10 0 59676  50262.000000  0   -1908968.100  -4688912.821   4662232.649
10 0 59676  50382.000000  0   -2315105.764  -5130487.135   3962633.483
10 0 59676  50502.000000  0   -2687659.554  -5475569.024   3193276.475
10 0 59676  50622.000000  0   -3018371.378  -5718766.181   2367692.748
10 0 59676  50742.000000  0   -3299641.812  -5856617.128   1500414.699
10 0 59676  50862.000000  0   -3524701.151  -5887643.828    606715.664
10 0 59676  50982.000000  0   -3687765.794  -5812364.496   -297665.926
10 0 59676  51102.000000  0   -3784175.977  -5633266.391  -1196812.239
10 0 59676  51222.000000  0   -3810510.951  -5354738.185  -2074915.609
10 0 59676  51342.000000  0   -3764678.697  -4982963.693  -2916564.543
10 0 59676  51462.000000  0   -3645977.735  -4525780.346  -3707019.710
10 0 59676  51582.000000  0   -3455129.776  -3992507.189  -4432473.443
10 0 59676  51702.000000  0   -3194283.757  -3393747.930  -5080288.361
10 0 59676  51822.000000  0   -2866991.638  -2741173.409  -5639211.622
10 0 59676  51942.000000  0   -2478157.207  -2047289.141  -6099561.294
10 0 59676  52062.000000  0   -2033959.004  -1325193.212  -6453384.059
10 0 59676  52182.000000  0   -1541748.527   -588328.483  -6694581.248
10 0 59676  52302.000000  0   -1009927.487    149765.078  -6819002.059
10 0 59676  52422.000000  0    -447806.364    875693.334  -6824506.555
10 0 59676  52542.000000  0     134555.428   1576444.819  -6710998.563
10 0 59676  52662.000000  0     726523.912   2239617.482  -6480427.613
10 0 59676  52782.000000  0    1317080.486   2853634.323  -6136761.255
10 0 59676  52902.000000  0    1895022.948   3407943.744  -5685923.546
10 0 59676  53022.000000  0    2449174.179   3893201.116  -5135702.514
10 0 59676  53142.000000  0    2968596.109   4301429.171  -4495627.243
10 0 59676  53262.000000  0    3442805.320   4626155.637  -3776814.004
10 0 59676  53382.000000  0    3861986.058   4862523.599  -2991782.346
10 0 59676  53502.000000  0    4217196.748   5007371.617  -2154242.793
10 0 59676  53622.000000  0    4500562.886   5059280.659  -1278859.716
10 0 59676  53742.000000  0    4705453.596   5018588.448   -380993.663
10 0 59676  53862.000000  0    4826635.881   4887366.785    523573.899
10 0 59676  53982.000000  0    4860400.545   4669363.538   1418924.624
10 0 59676  54102.000000  0    4804659.728   4369912.687   2289290.570
10 0 59676  54222.000000  0    4659013.079   3995811.644   3119341.643
10 0 59676  54342.000000  0    4424777.210   3555168.445   3894464.202
10 0 59676  54462.000000  0    4104979.644   3057224.278   4601023.228
10 0 59676  54582.000000  0    3704320.036   2512157.006   5226604.146
10 0 59676  54702.000000  0    3229095.686   1930868.633   5760231.790
10 0 59676  54822.000000  0    2687095.989   1324763.810   6192558.070
10 0 59676  54942.000000  0    2087469.960    705522.887   6516019.792
10 0 59676  55062.000000  0    1440568.000     84876.228   6724963.861
10 0 59676  55182.000000  0     757760.913   -525616.565   6815741.814
10 0 59676  55302.000000  0      51238.593  -1114782.276   6786770.280
99
